{
    "week": 294,
    "satellites": [
        {
            "Name": "BEIDOU-2 G6 (C02)",
            "Line1": "1 38953U 12059A   24331.10142282 -.00000156  00000+0  00000+0 0  9999",
            "Line2": "2 38953   2.9732  79.1730 0007220 290.4726 176.4265  1.00273743 44355",
            "SatelliteNumber": "38953",
            "Classification": "U",
            "LaunchYear": "12",
            "LaunchNumber": "059",
            "PieceOfLaunch": "A",
            "EpochYear": "24",
            "EpochDay": 331.10142282,
            "FirstDerivativeMeanMotion": -1.56e-06,
            "SecondDerivativeMeanMotion": "00000+0",
            "BSTAR": "00000+0",
            "SetNumber": "999",
            "Inclination": 2.9732,
            "RAAN": 79.173,
            "Eccentricity": 0.000722,
            "ArgumentOfPerigee": 290.4726,
            "MeanAnomaly": 176.4265,
            "MeanMotion": 1.00273743,
            "RevolutionNumber": "4435"
        },
        {
            "Name": "BEIDOU-3S IGSO-1S (C31)",
            "Line1": "1 40549U 15019A   24331.38982409 -.00000189  00000+0  00000+0 0  9991",
            "Line2": "2 40549  50.2732 302.2676 0035077 198.6821 161.8107  1.00268865 35374",
            "SatelliteNumber": "40549",
            "Classification": "U",
            "LaunchYear": "15",
            "LaunchNumber": "019",
            "PieceOfLaunch": "A",
            "EpochYear": "24",
            "EpochDay": 331.38982409,
            "FirstDerivativeMeanMotion": -1.89e-06,
            "SecondDerivativeMeanMotion": "00000+0",
            "BSTAR": "00000+0",
            "SetNumber": "999",
            "Inclination": 50.2732,
            "RAAN": 302.2676,
            "Eccentricity": 0.0035077,
            "ArgumentOfPerigee": 198.6821,
            "MeanAnomaly": 161.8107,
            "MeanMotion": 1.00268865,
            "RevolutionNumber": "3537"
        },
        {
            "Name": "BEIDOU-3S M2S (C58)",
            "Line1": "1 40748U 15037A   24330.68641724 -.00000076  00000+0  00000+0 0  9991",
            "Line2": "2 40748  55.3573 321.5363 0013084 260.5882  99.2734  1.86229230 63537",
            "SatelliteNumber": "40748",
            "Classification": "U",
            "LaunchYear": "15",
            "LaunchNumber": "037",
            "PieceOfLaunch": "A",
            "EpochYear": "24",
            "EpochDay": 330.68641724,
            "FirstDerivativeMeanMotion": -7.6e-07,
            "SecondDerivativeMeanMotion": "00000+0",
            "BSTAR": "00000+0",
            "SetNumber": "999",
            "Inclination": 55.3573,
            "RAAN": 321.5363,
            "Eccentricity": 0.0013084,
            "ArgumentOfPerigee": 260.5882,
            "MeanAnomaly": 99.2734,
            "MeanMotion": 1.8622923,
            "RevolutionNumber": "6353"
        },
        {
            "Name": "BEIDOU-3S M1S (C57)",
            "Line1": "1 40749U 15037B   24330.42271714 -.00000076  00000+0  00000+0 0  9992",
            "Line2": "2 40749  55.3602 321.5318 0004274 321.1922  38.7871  1.86227688 63536",
            "SatelliteNumber": "40749",
            "Classification": "U",
            "LaunchYear": "15",
            "LaunchNumber": "037",
            "PieceOfLaunch": "B",
            "EpochYear": "24",
            "EpochDay": 330.42271714,
            "FirstDerivativeMeanMotion": -7.6e-07,
            "SecondDerivativeMeanMotion": "00000+0",
            "BSTAR": "00000+0",
            "SetNumber": "999",
            "Inclination": 55.3602,
            "RAAN": 321.5318,
            "Eccentricity": 0.0004274,
            "ArgumentOfPerigee": 321.1922,
            "MeanAnomaly": 38.7871,
            "MeanMotion": 1.86227688,
            "RevolutionNumber": "6353"
        },
        {
            "Name": "BEIDOU-3S IGSO-2S (C56)",
            "Line1": "1 40938U 15053A   24330.49388235 -.00000167  00000+0  00000+0 0  9995",
            "Line2": "2 40938  50.1090 265.5178 0051749 189.3713 244.3460  1.00269464 33655",
            "SatelliteNumber": "40938",
            "Classification": "U",
            "LaunchYear": "15",
            "LaunchNumber": "053",
            "PieceOfLaunch": "A",
            "EpochYear": "24",
            "EpochDay": 330.49388235,
            "FirstDerivativeMeanMotion": -1.67e-06,
            "SecondDerivativeMeanMotion": "00000+0",
            "BSTAR": "00000+0",
            "SetNumber": "999",
            "Inclination": 50.109,
            "RAAN": 265.5178,
            "Eccentricity": 0.0051749,
            "ArgumentOfPerigee": 189.3713,
            "MeanAnomaly": 244.346,
            "MeanMotion": 1.00269464,
            "RevolutionNumber": "3365"
        },
        {
            "Name": "BEIDOU-2 IGSO-6 (C13)",
            "Line1": "1 41434U 16021A   24331.67548729 -.00000180  00000+0  00000+0 0  9995",
            "Line2": "2 41434  59.4193  43.7177 0055248 225.3937 136.7080  1.00283719 31788",
            "SatelliteNumber": "41434",
            "Classification": "U",
            "LaunchYear": "16",
            "LaunchNumber": "021",
            "PieceOfLaunch": "A",
            "EpochYear": "24",
            "EpochDay": 331.67548729,
            "FirstDerivativeMeanMotion": -1.8e-06,
            "SecondDerivativeMeanMotion": "00000+0",
            "BSTAR": "00000+0",
            "SetNumber": "999",
            "Inclination": 59.4193,
            "RAAN": 43.7177,
            "Eccentricity": 0.0055248,
            "ArgumentOfPerigee": 225.3937,
            "MeanAnomaly": 136.708,
            "MeanMotion": 1.00283719,
            "RevolutionNumber": "3178"
        },
        {
            "Name": "BEIDOU-2 G7 (C03)",
            "Line1": "1 41586U 16037A   24331.01855075 -.00000335  00000+0  00000+0 0  9995",
            "Line2": "2 41586   1.7672  67.1518 0007283 345.9739 129.4428  1.00278674 31084",
            "SatelliteNumber": "41586",
            "Classification": "U",
            "LaunchYear": "16",
            "LaunchNumber": "037",
            "PieceOfLaunch": "A",
            "EpochYear": "24",
            "EpochDay": 331.01855075,
            "FirstDerivativeMeanMotion": -3.35e-06,
            "SecondDerivativeMeanMotion": "00000+0",
            "BSTAR": "00000+0",
            "SetNumber": "999",
            "Inclination": 1.7672,
            "RAAN": 67.1518,
            "Eccentricity": 0.0007283,
            "ArgumentOfPerigee": 345.9739,
            "MeanAnomaly": 129.4428,
            "MeanMotion": 1.00278674,
            "RevolutionNumber": "3108"
        },
        {
            "Name": "BEIDOU-3 M1 (C19)",
            "Line1": "1 43001U 17069A   24331.03524536 -.00000034  00000+0  00000+0 0  9998",
            "Line2": "2 43001  56.1979  81.8780 0008284 297.5381  62.3610  1.86231391 48022",
            "SatelliteNumber": "43001",
            "Classification": "U",
            "LaunchYear": "17",
            "LaunchNumber": "069",
            "PieceOfLaunch": "A",
            "EpochYear": "24",
            "EpochDay": 331.03524536,
            "FirstDerivativeMeanMotion": -3.4e-07,
            "SecondDerivativeMeanMotion": "00000+0",
            "BSTAR": "00000+0",
            "SetNumber": "999",
            "Inclination": 56.1979,
            "RAAN": 81.878,
            "Eccentricity": 0.0008284,
            "ArgumentOfPerigee": 297.5381,
            "MeanAnomaly": 62.361,
            "MeanMotion": 1.86231391,
            "RevolutionNumber": "4802"
        },
        {
            "Name": "BEIDOU-3 M2 (C20)",
            "Line1": "1 43002U 17069B   24331.50979100 -.00000036  00000+0  00000+0 0  9994",
            "Line2": "2 43002  56.1973  81.8982 0005736 327.7694  32.1779  1.86230987 48024",
            "SatelliteNumber": "43002",
            "Classification": "U",
            "LaunchYear": "17",
            "LaunchNumber": "069",
            "PieceOfLaunch": "B",
            "EpochYear": "24",
            "EpochDay": 331.509791,
            "FirstDerivativeMeanMotion": -3.6e-07,
            "SecondDerivativeMeanMotion": "00000+0",
            "BSTAR": "00000+0",
            "SetNumber": "999",
            "Inclination": 56.1973,
            "RAAN": 81.8982,
            "Eccentricity": 0.0005736,
            "ArgumentOfPerigee": 327.7694,
            "MeanAnomaly": 32.1779,
            "MeanMotion": 1.86230987,
            "RevolutionNumber": "4802"
        },
        {
            "Name": "BEIDOU-3 M7 (C27)",
            "Line1": "1 43107U 18003A   24331.25743765 -.00000078  00000+0  00000+0 0  9993",
            "Line2": "2 43107  54.8154 322.0366 0002364  60.7868 299.2466  1.86232534 46783",
            "SatelliteNumber": "43107",
            "Classification": "U",
            "LaunchYear": "18",
            "LaunchNumber": "003",
            "PieceOfLaunch": "A",
            "EpochYear": "24",
            "EpochDay": 331.25743765,
            "FirstDerivativeMeanMotion": -7.8e-07,
            "SecondDerivativeMeanMotion": "00000+0",
            "BSTAR": "00000+0",
            "SetNumber": "999",
            "Inclination": 54.8154,
            "RAAN": 322.0366,
            "Eccentricity": 0.0002364,
            "ArgumentOfPerigee": 60.7868,
            "MeanAnomaly": 299.2466,
            "MeanMotion": 1.86232534,
            "RevolutionNumber": "4678"
        }
    ]
}